{
    "links": {
        "self": "http://www.neowsapp.com/rest/v1/neo/3879108?api_key=iIulBulltgU6a56xZRHN4H3l9WmuAYTsLGpBGhQ2"
    },
    "id": "3879108",
    "neo_reference_id": "3879108",
    "name": "(2019 SE11)",
    "designation": "2019 SE11",
    "nasa_jpl_url": "http://ssd.jpl.nasa.gov/sbdb.cgi?sstr=3879108",
    "absolute_magnitude_h": 25.8,
    "estimated_diameter": {
        "kilometers": {
            "estimated_diameter_min": 0.0183888672,
            "estimated_diameter_max": 0.0411187571
        },
        "meters": {
            "estimated_diameter_min": 18.388867207,
            "estimated_diameter_max": 41.1187571041
        },
        "miles": {
            "estimated_diameter_min": 0.0114263088,
            "estimated_diameter_max": 0.0255500032
        },
        "feet": {
            "estimated_diameter_min": 60.3309310875,
            "estimated_diameter_max": 134.9040630575
        }
    },
    "is_potentially_hazardous_asteroid": false,
    "close_approach_data": [
        {
            "close_approach_date": "2019-09-29",
            "close_approach_date_full": "2019-Sep-29 19:12",
            "epoch_date_close_approach": 1569784320000,
            "relative_velocity": {
                "kilometers_per_second": "7.5157101942",
                "kilometers_per_hour": "27056.5566991516",
                "miles_per_hour": "16811.8921334256"
            },
            "miss_distance": {
                "astronomical": "0.0716637607",
                "lunar": "27.8772029123",
                "kilometers": "10720745.956909709",
                "miles": "6661562.6368596242"
            },
            "orbiting_body": "Earth"
        }
    ],
    "orbital_data": {
        "orbit_id": "1",
        "orbit_determination_date": "2019-10-11 06:27:57",
        "first_observation_date": "2019-09-21",
        "last_observation_date": "2019-09-22",
        "data_arc_in_days": 1,
        "observations_used": 8,
        "orbit_uncertainty": "9",
        "minimum_orbit_intersection": ".0715558",
        "jupiter_tisserand_invariant": "3.468",
        "epoch_osculation": "2458748.5",
        "eccentricity": ".515612576065261",
        "semi_major_axis": "2.198922806611387",
        "inclination": "8.555562196636444",
        "ascending_node_longitude": "177.9528949112754",
        "orbital_period": "1191.004499999184",
        "perihelion_distance": "1.065130553725836",
        "perihelion_argument": "197.5312673475964",
        "aphelion_distance": "3.332715059496938",
        "perihelion_time": "2458764.879137418379",
        "mean_anomaly": "355.0491459346959",
        "mean_motion": ".3022658604566538",
        "equinox": "J2000",
        "orbit_class": {
            "orbit_class_type": "AMO",
            "orbit_class_description": "Near-Earth asteroid orbits similar to that of 1221 Amor",
            "orbit_class_range": "1.017 AU < q (perihelion) < 1.3 AU"
        }
    },
    "is_sentry_object": false
}